NORAD_CAT_ID,OBJECT_NAME,OBJECT_TYPE,EPOCH,MEAN_MOTION,ECCENTRICITY,INCLINATION,RA_OF_ASC_NODE,ARG_OF_PERICENTER,MEAN_ANOMALY,BSTAR,MEAN_MOTION_DOT,MEAN_MOTION_DDOT,TLE_LINE0,TLE_LINE1,TLE_LINE2,SEMIMAJOR_AXIS,PERIOD,APOGEE,PERIGEE,DECAYED
52677.0,STARLINK-4028,PAYLOAD,2022-09-16 12:55:49,15.0883125,0.0001591,53.2158,86.0453,54.5926,305.5214,-8.5257e-06,-4.24e-06,0.0,0 STARLINK-4028,1 52677U 22053X   22259.53876586 -.00000424  00000-0 -85257-5 0  9991,2 52677  53.2158  86.0453 0001591  54.5926 305.5214 15.08831250 19403,6917.906999999997,95.438,540.873,538.6709999999998,0.0
52677.0,STARLINK-4028,PAYLOAD,2022-09-16 14:31:12,15.08835774,0.0001312,53.2159,85.7463,72.3388,287.7747,7.6122e-05,9.24e-06,0.0,0 STARLINK-4028,1 52677U 22053X   22259.60500035  .00000924  00000-0  76122-4 0  9995,2 52677  53.2159  85.7463 0001312  72.3388 287.7747 15.08835774 19410,6917.893,95.438,540.6659999999998,538.851,0.0
52677.0,STARLINK-4028,PAYLOAD,2022-09-17 04:49:40,15.08845631,0.0001492,53.216,83.0721,51.1714,308.9411,-8.6006e-05,-1.657e-05,0.0,0 STARLINK-4028,1 52677U 22053X   22260.20116075 -.00001657  00000-0 -86006-4 0  9998,2 52677  53.2160  83.0721 0001492  51.1714 308.9411 15.08845631 19098,6917.863,95.437,540.76,538.696,0.0
52677.0,STARLINK-4028,PAYLOAD,2022-09-17 12:46:36,15.08827264,0.000147,53.2168,81.5852,46.7363,313.3751,-7.8609e-06,-4.13e-06,0.0,0 STARLINK-4028,1 52677U 22053X   22260.53237036 -.00000413  00000-0 -78609-5 0  9995,2 52677  53.2168  81.5852 0001470  46.7363 313.3751 15.08827264 19550,6917.919,95.438,540.8009999999998,538.7669999999998,0.0
52677.0,STARLINK-4028,PAYLOAD,2022-09-17 19:08:09,15.08828727,0.0001588,53.2168,80.3951,49.3341,310.7789,-5.1424e-05,-1.106e-05,0.0,0 STARLINK-4028,1 52677U 22053X   22260.79733290 -.00001106  00000-0 -51424-4 0  9991,2 52677  53.2168  80.3951 0001588  49.3341 310.7789 15.08828727 19188,6917.915,95.438,540.878,538.681,0.0
52677.0,STARLINK-4028,PAYLOAD,2022-09-18 12:37:22,15.08928663,0.0001236,53.2168,77.1243,28.4202,331.6858,-0.0012755999999999,-0.00020581,0.0,0 STARLINK-4028,1 52677U 22053X   22261.52595254 -.00020581  00000-0 -12756-2 0  9990,2 52677  53.2168  77.1243 0001236  28.4202 331.6858 15.08928663 19707,6917.609,95.432,540.3290000000002,538.619,0.0
52677.0,STARLINK-4028,PAYLOAD,2022-09-18 18:58:55,15.08873176,0.0001467,53.2168,75.9347,37.76300000000001,322.3465,-0.00045907,-7.593e-05,0.0,0 STARLINK-4028,1 52677U 22053X   22261.79091745 -.00007593  00000-0 -45907-3 0  9998,2 52677  53.2168  75.9347 0001467  37.7630 322.3465 15.08873176 19330,6917.779,95.435,540.659,538.629,0.0
52677.0,STARLINK-4028,PAYLOAD,2022-09-18 22:09:42,15.0883811,0.0001574,53.2168,75.3397,53.0331,307.0805,6.6125e-05,7.64e-06,0.0,0 STARLINK-4028,1 52677U 22053X   22261.92340931  .00000764  00000-0  66125-4 0  9994,2 52677  53.2168  75.3397 0001574  53.0331 307.0805 15.08838110 19356,6917.886,95.438,540.84,538.6619999999998,0.0
52677.0,STARLINK-4028,PAYLOAD,2022-09-19 10:52:48,15.08828133,0.000166,53.2165,72.9611,56.5082,303.6069,-2.5472e-06,-3.29e-06,0.0,0 STARLINK-4028,1 52677U 22053X   22262.45334093 -.00000329  00000-0 -25472-5 0  9995,2 52677  53.2165  72.9611 0001660  56.5082 303.6069 15.08828133 19844,6917.917,95.438,540.93,538.633,0.0
52677.0,STARLINK-4028,PAYLOAD,2022-09-19 14:03:35,15.08814942,0.0001475,53.2166,72.3661,54.6289,305.4840000000001,0.00012543,1.708e-05,0.0,0 STARLINK-4028,1 52677U 22053X   22262.58582667  .00001708  00000-0  12543-3 0  9994,2 52677  53.2166  72.3661 0001475  54.6289 305.4840 15.08814942 19453,6917.956999999999,95.439,540.842,538.802,0.0
52677.0,STARLINK-4028,PAYLOAD,2022-09-20 10:43:35,15.0883709,0.000165,53.2162,68.5001,56.2097,303.9052,7.7033e-05,9.38e-06,0.0,0 STARLINK-4028,1 52677U 22053X   22263.44693965  .00000938  00000-0  77033-4 0  9994,2 52677  53.2162  68.5001 0001650  56.2097 303.9052 15.08837090 19990,6917.889,95.438,540.896,538.613,0.0
52677.0,STARLINK-4028,PAYLOAD,2022-09-20 13:54:21,15.08839116,0.0001641999999999,53.2163,67.9055,57.2988,302.8162,9.0445e-05,1.152e-05,0.0,0 STARLINK-4028,1 52677U 22053X   22263.57941818  .00001152  00000-0  90445-4 0  9992,2 52677  53.2163  67.9055 0001642  57.2988 302.8162 15.08839116 20010,6917.8830000000025,95.438,540.884,538.612,0.0
52677.0,STARLINK-4028,PAYLOAD,2022-09-21 13:45:08,15.08837045,0.0001583,53.2169,63.4455,50.4239,309.6893,0.00012986,1.779e-05,0.0,0 STARLINK-4028,1 52677U 22053X   22264.57301729  .00001779  00000-0  12986-3 0  9992,2 52677  53.2169  63.4455 0001583  50.4239 309.6893 15.08837045 19753,6917.889,95.438,540.85,538.659,0.0
52677.0,STARLINK-4028,PAYLOAD,2022-09-22 13:35:54,15.08850378,0.0001606,53.217,58.9846,56.5738,303.5407,8.971700000000001e-05,1.14e-05,0.0,0 STARLINK-4028,1 52677U 22053X   22265.56660803  .00001140  00000-0  89717-4 0  9992,2 52677  53.2170  58.9846 0001606  56.5738 303.5407 15.08850378 20317,6917.849,95.437,540.825,538.6030000000002,0.0
52677.0,STARLINK-4028,PAYLOAD,2022-09-22 16:46:41,15.08840741,0.0001587,53.2176,58.3909,49.1281,310.9849,-2.1959e-06,-3.23e-06,0.0,0 STARLINK-4028,1 52677U 22053X   22265.69909633 -.00000323  00000-0 -21959-5 0  9992,2 52677  53.2176  58.3909 0001587  49.1281 310.9849 15.08840741 20333,6917.878000000002,95.438,540.841,538.645,0.0
52677.0,STARLINK-4028,PAYLOAD,2022-09-23 13:26:43,15.08833696,0.0001817,53.2181,54.5269,40.8428,319.27,-4.654399999999999e-05,-1.029e-05,0.0,0 STARLINK-4028,1 52677U 22053X   22266.56022116 -.00001029  00000-0 -46544-4 0  9991,2 52677  53.2181  54.5269 0001817  40.8428 319.2700 15.08833696 20466,6917.9,95.438,541.0219999999998,538.508,0.0
52677.0,STARLINK-4028,PAYLOAD,2022-09-23 16:37:29,15.08836568,0.00018,53.2179,53.9317,43.5836,316.5298,-1.8931e-05,-5.89e-06,0.0,0 STARLINK-4028,1 52677U 22053X   22266.69269878 -.00000589  00000-0 -18931-4 0  9992,2 52677  53.2179  53.9317 0001800  43.5836 316.5298 15.08836568 20480,6917.891,95.438,541.001,538.511,0.0
52677.0,STARLINK-4028,PAYLOAD,2022-09-24 13:17:29,15.08842743,0.0001751,53.2175,50.0649,52.6976,307.4176,2.0278e-05,3.5e-07,0.0,0 STARLINK-4028,1 52677U 22053X   22267.55381427  .00000035  00000-0  20278-4 0  9994,2 52677  53.2175  50.0649 0001751  52.6976 307.4176 15.08842743 20614,6917.871999999999,95.437,540.948,538.526,0.0
52677.0,STARLINK-4028,PAYLOAD,2022-09-24 16:28:15,15.08847333,0.0001746,53.2174,49.4698,54.2576,305.8578,7.286699999999999e-05,8.72e-06,0.0,0 STARLINK-4028,1 52677U 22053X   22267.68628961  .00000872  00000-0  72867-4 0  9995,2 52677  53.2174  49.4698 0001746  54.2576 305.8578 15.08847333 20222,6917.858,95.437,540.931,538.515,0.0
52677.0,STARLINK-4028,PAYLOAD,2022-09-25 11:32:53,15.08838786,0.000178,53.2175,45.9011,54.0192,306.0965,0.00013335,1.835e-05,0.0,0 STARLINK-4028,1 52677U 22053X   22268.48117136  .00001835  00000-0  13335-3 0  9995,2 52677  53.2175  45.9011 0001780  54.0192 306.0965 15.08838786 20341,6917.884,95.438,540.98,538.518,0.0
52677.0,STARLINK-4028,PAYLOAD,2022-09-25 16:19:03,15.08831494,0.0001638,53.2178,45.00899999999999,53.24800000000001,306.8663,6.7138e-05,7.8e-06,0.0,0 STARLINK-4028,1 52677U 22053X   22268.67989811  .00000780  00000-0  67138-4 0  9992,2 52677  53.2178  45.0090 0001638  53.2480 306.8663 15.08831494 20370,6917.906,95.438,540.905,538.638,0.0
52677.0,STARLINK-4028,PAYLOAD,2022-09-26 11:23:40,15.08839426,0.0001692,53.2181,41.4402,53.1464,306.9683,-5.2133e-05,-1.118e-05,0.0,0 STARLINK-4028,1 52677U 22053X   22269.47477916 -.00001118  00000-0 -52133-4 0  9996,2 52677  53.2181  41.4402 0001692  53.1464 306.9683 15.08839426 20907,6917.882,95.438,540.918,538.577,0.0
52677.0,STARLINK-4028,PAYLOAD,2022-09-28 01:32:52,15.088926,0.0002378,53.2197,34.308,52.1589,307.9618,0.00048969,7.525e-05,0.0,0 STARLINK-4028,1 52677U 22053X   22271.06449552  .00007525  00000-0  48969-3 0  9996,2 52677  53.2197  34.3080 0002378  52.1589 307.9618 15.08892600 20739,6917.72,95.434,541.23,537.94,0.0
52677.0,STARLINK-4028,PAYLOAD,2022-09-28 09:29:50,15.08853756,0.0001686999999999,53.2178,32.8174,51.0116,309.1026,0.00016503,2.34e-05,0.0,0 STARLINK-4028,1 52677U 22053X   22271.39572144  .00002340  00000-0  16503-3 0  9995,2 52677  53.2178  32.8174 0001687  51.0116 309.1026 15.08853756 21198,6917.8380000000025,95.437,540.87,538.536,0.0
52677.0,STARLINK-4028,PAYLOAD,2022-09-28 20:37:32,15.08850416,0.0001810999999999,53.2167,30.7347,57.4322,302.6845,0.00016369,2.319e-05,0.0,0 STARLINK-4028,1 52677U 22053X   22271.85940201  .00002319  00000-0  16369-3 0  9995,2 52677  53.2167  30.7347 0001811  57.4322 302.6845 15.08850416 21268,6917.849,95.437,540.966,538.461,0.0
52677.0,STARLINK-4028,PAYLOAD,2022-09-28 23:48:19,15.08844725,0.0001688,53.2175,30.1399,52.6388,307.4757,-6.3749e-05,-1.303e-05,0.0,0 STARLINK-4028,1 52677U 22053X   22271.99189256 -.00001303  00000-0 -63749-4 0  9994,2 52677  53.2175  30.1399 0001688  52.6388 307.4757 15.08844725 20876,6917.866,95.437,540.899,538.563,0.0
52677.0,STARLINK-4028,PAYLOAD,2022-09-29 10:56:02,15.08831648,0.0001654,53.2178,28.0591,52.6512,307.463,-0.00015492,-2.752e-05,0.0,0 STARLINK-4028,1 52677U 22053X   22272.45558345 -.00002752  00000-0 -15492-3 0  9995,2 52677  53.2178  28.0591 0001654  52.6512 307.4630 15.08831648 20949,6917.906,95.438,540.915,538.627,0.0
52677.0,STARLINK-4028,PAYLOAD,2022-09-29 14:06:48,15.08832944,0.0001678,53.2178,27.4645,52.0364,308.078,-0.00013531,-2.44e-05,0.0,0 STARLINK-4028,1 52677U 22053X   22272.58806273 -.00002440  00000-0 -13531-3 0  9991,2 52677  53.2178  27.4645 0001678  52.0364 308.0780 15.08832944 21378,6917.901999999999,95.438,540.928,538.606,0.0
52677.0,STARLINK-4028,PAYLOAD,2022-09-29 18:52:57,15.08832391,0.0001723,53.2173,26.5727,50.5012,309.6133,-0.00017732,-3.108e-05,0.0,0 STARLINK-4028,1 52677U 22053X   22272.78677550 -.00003108  00000-0 -17732-3 0  9996,2 52677  53.2173  26.5727 0001723  50.5012 309.6133 15.08832391 20990,6917.904,95.438,540.961,538.577,0.0
